{"type": "FeatureCollection", "features": [ {"type": "Feature", "properties": {"norad_id": 30960, "name": "FENGYUN 1C DEB", "group": "fengyun-1c-debris", "lat": -64.0579781258104, "lon": -86.8798000247421, "alt_km": 722.6003153639385, "timestamp": "2025-12-21T07:34:34.796302+00:00", "meta": {"OBJECT_NAME": "FENGYUN 1C DEB", "OBJECT_ID": "1999-025BBA", "EPOCH": "2025-12-20T14:06:29.253312", "MEAN_MOTION": 14.67036507, "ECCENTRICITY": 0.0196079, "INCLINATION": 99.0011, "RA_OF_ASC_NODE": 111.337, "ARG_OF_PERICENTER": 137.739, "MEAN_ANOMALY": 223.9112, "EPHEMERIS_TYPE": 0, "CLASSIFICATION_TYPE": "U", "NORAD_CAT_ID": 30960, "ELEMENT_SET_NO": 999, "REV_AT_EPOCH": 98813, "BSTAR": 0.00091607, "MEAN_MOTION_DOT": 6.798e-05, "MEAN_MOTION_DDOT": 0}, "tle": {"line1": "1 30960U 99025BBA 25354.58783858  .00006798  00000+0  91607-3 0  9999", "line2": "2 30960  99.0011 111.3370 0196079 137.7390 223.9112 14.67036507988136"}}, "geometry": {"type": "Point", "coordinates": [-86.8798000247421, -64.0579781258104]}}, {"type": "Feature", "properties": {"norad_id": 30967, "name": "FENGYUN 1C DEB", "group": "fengyun-1c-debris", "lat": 11.717725533039138, "lon": 123.81258857707354, "alt_km": 655.8855633623434, "timestamp": "2025-12-21T07:34:34.796311+00:00", "meta": {"OBJECT_NAME": "FENGYUN 1C DEB", "OBJECT_ID": "1999-025BBH", "EPOCH": "2025-12-20T19:15:56.203776", "MEAN_MOTION": 14.57189314, "ECCENTRICITY": 0.00947574, "INCLINATION": 98.7646, "RA_OF_ASC_NODE": 301.4393, "ARG_OF_PERICENTER": 214.6873, "MEAN_ANOMALY": 144.8122, "EPHEMERIS_TYPE": 0, "CLASSIFICATION_TYPE": "U", "NORAD_CAT_ID": 30967, "ELEMENT_SET_NO": 999, "REV_AT_EPOCH": 99131, "BSTAR": 0.00041221215, "MEAN_MOTION_DOT": 1.922e-05, "MEAN_MOTION_DDOT": 0}, "tle": {"line1": "1 30967U 99025BBH 25354.80273384  .00001922  00000+0  41221-3 0  9990", "line2": "2 30967  98.7646 301.4393 0094757 214.6873 144.8122 14.57189314991311"}}, "geometry": {"type": "Point", "coordinates": [123.81258857707354, 11.717725533039138]}}, {"type": "Feature", "properties": {"norad_id": 30971, "name": "FENGYUN 1C DEB", "group": "fengyun-1c-debris", "lat": 75.64066326073028, "lon": -100.38339738358013, "alt_km": 595.5580479260962, "timestamp": "2025-12-21T07:34:34.796321+00:00", "meta": {"OBJECT_NAME": "FENGYUN 1C DEB", "OBJECT_ID": "1999-025BBM", "EPOCH": "2025-12-19T21:39:07.398144", "MEAN_MOTION": 14.71761036, "ECCENTRICITY": 0.0163996, "INCLINATION": 99.2089, "RA_OF_ASC_NODE": 38.6926, "ARG_OF_PERICENTER": 169.0815, "MEAN_ANOMALY": 8.709, "EPHEMERIS_TYPE": 0, "CLASSIFICATION_TYPE": "U", "NORAD_CAT_ID": 30971, "ELEMENT_SET_NO": 999, "REV_AT_EPOCH": 99822, "BSTAR": 0.00038778, "MEAN_MOTION_DOT": 2.917e-05, "MEAN_MOTION_DDOT": 0}, "tle": {"line1": "1 30971U 99025BBM 25353.90216896  .00002917  00000+0  38778-3 0  9998", "line2": "2 30971  99.2089  38.6926 0163996 169.0815   8.7090 14.71761036998227"}}, "geometry": {"type": "Point", "coordinates": [-100.38339738358013, 75.64066326073028]}}, {"type": "Feature", "properties": {"norad_id": 30979, "name": "FENGYUN 1C DEB", "group": "fengyun-1c-debris", "lat": 15.743115539017138, "lon": -108.68200343322607, "alt_km": 760.7890329228185, "timestamp": "2025-12-21T07:34:34.796330+00:00", "meta": {"OBJECT_NAME": "FENGYUN 1C DEB", "OBJECT_ID": "1999-025BBV", "EPOCH": "2025-12-20T23:27:34.845696", "MEAN_MOTION": 14.78903943, "ECCENTRICITY": 0.01902444, "INCLINATION": 97.8301, "RA_OF_ASC_NODE": 253.2118, "ARG_OF_PERICENTER": 214.2459, "MEAN_ANOMALY": 161.6438, "EPHEMERIS_TYPE": 0, "CLASSIFICATION_TYPE": "U", "NORAD_CAT_ID": 30979, "ELEMENT_SET_NO": 999, "REV_AT_EPOCH": 99267, "BSTAR": 0.00049043308, "MEAN_MOTION_DOT": 4.847e-05, "MEAN_MOTION_DDOT": 0}, "tle": {"line1": "1 30979U 99025BBV 25354.97748664  .00004847  00000+0  49043-3 0  9998", "line2": "2 30979  97.8301 253.2118 0190244 214.2459 161.6438 14.78903943992677"}}, "geometry": {"type": "Point", "coordinates": [-108.68200343322607, 15.743115539017138]}}, {"type": "Feature", "properties": {"norad_id": 30982, "name": "FENGYUN 1C DEB", "group": "fengyun-1c-debris", "lat": 81.38857207477295, "lon": -122.06773085168125, "alt_km": 839.2287546645548, "timestamp": "2025-12-21T07:34:34.796339+00:00", "meta": {"OBJECT_NAME": "FENGYUN 1C DEB", "OBJECT_ID": "1999-025BBY", "EPOCH": "2025-12-19T11:10:19.021152", "MEAN_MOTION": 14.50972134, "ECCENTRICITY": 0.0180096, "INCLINATION": 98.2165, "RA_OF_ASC_NODE": 343.5483, "ARG_OF_PERICENTER": 291.7796, "MEAN_ANOMALY": 221.541, "EPHEMERIS_TYPE": 0, "CLASSIFICATION_TYPE": "U", "NORAD_CAT_ID": 30982, "ELEMENT_SET_NO": 999, "REV_AT_EPOCH": 71151, "BSTAR": 0.000239, "MEAN_MOTION_DOT": 1.11e-05, "MEAN_MOTION_DDOT": 0}, "tle": {"line1": "1 30982U 99025BBY 25353.46549793  .00001110  00000+0  23900-3 0  9991", "line2": "2 30982  98.2165 343.5483 0180096 291.7796 221.5410 14.50972134711516"}}, "geometry": {"type": "Point", "coordinates": [-122.06773085168125, 81.38857207477295]}}, {"type": "Feature", "properties": {"norad_id": 30984, "name": "FENGYUN 1C DEB", "group": "fengyun-1c-debris", "lat": -46.129353700835054, "lon": 40.19073188470788, "alt_km": 651.2576761670944, "timestamp": "2025-12-21T07:34:34.796348+00:00", "meta": {"OBJECT_NAME": "FENGYUN 1C DEB", "OBJECT_ID": "1999-025BCA", "EPOCH": "2025-12-19T01:09:07.900704", "MEAN_MOTION": 14.50470271, "ECCENTRICITY": 0.01269732, "INCLINATION": 98.2627, "RA_OF_ASC_NODE": 29.2707, "ARG_OF_PERICENTER": 348.6992, "MEAN_ANOMALY": 11.1357, "EPHEMERIS_TYPE": 0, "CLASSIFICATION_TYPE": "U", "NORAD_CAT_ID": 30984, "ELEMENT_SET_NO": 999, "REV_AT_EPOCH": 95255, "BSTAR": 0.00057491681, "MEAN_MOTION_DOT": 2.445e-05, "MEAN_MOTION_DDOT": 0}, "tle": {"line1": "1 30984U 99025BCA 25353.04800811  .00002445  00000+0  57492-3 0  9993", "line2": "2 30984  98.2627  29.2707 0126973 348.6992  11.1357 14.50470271952551"}}, "geometry": {"type": "Point", "coordinates": [40.19073188470788, -46.129353700835054]}}, {"type": "Feature", "properties": {"norad_id": 30988, "name": "FENGYUN 1C DEB", "group": "fengyun-1c-debris", "lat": 69.75712216894404, "lon": 147.96418680429633, "alt_km": 547.3251040505565, "timestamp": "2025-12-21T07:34:34.796358+00:00", "meta": {"OBJECT_NAME": "FENGYUN 1C DEB", "OBJECT_ID": "1999-025BCE", "EPOCH": "2025-12-20T20:05:36.735936", "MEAN_MOTION": 15.27111223, "ECCENTRICITY": 0.01098086, "INCLINATION": 98.5432, "RA_OF_ASC_NODE": 303.3604, "ARG_OF_PERICENTER": 311.9603, "MEAN_ANOMALY": 47.2314, "EPHEMERIS_TYPE": 0, "CLASSIFICATION_TYPE": "U", "NORAD_CAT_ID": 30988, "ELEMENT_SET_NO": 999, "REV_AT_EPOCH": 99687, "BSTAR": 0.0012912634, "MEAN_MOTION_DOT": 0.00041106, "MEAN_MOTION_DDOT": 0}, "tle": {"line1": "1 30988U 99025BCE 25354.83723074  .00041106  00000+0  12913-2 0  9995", "line2": "2 30988  98.5432 303.3604 0109808 311.9603  47.2314 15.27111223996874"}}, "geometry": {"type": "Point", "coordinates": [147.96418680429633, 69.75712216894404]}}, {"type": "Feature", "properties": {"norad_id": 30989, "name": "FENGYUN 1C DEB", "group": "fengyun-1c-debris", "lat": 7.813129194431764, "lon": 67.7379815266024, "alt_km": 822.3178742942782, "timestamp": "2025-12-21T07:34:34.796367+00:00", "meta": {"OBJECT_NAME": "FENGYUN 1C DEB", "OBJECT_ID": "1999-025BCF", "EPOCH": "2025-12-20T21:20:58.403040", "MEAN_MOTION": 14.1397476, "ECCENTRICITY": 0.00902114, "INCLINATION": 99.0524, "RA_OF_ASC_NODE": 68.56, "ARG_OF_PERICENTER": 76.8659, "MEAN_ANOMALY": 284.2561, "EPHEMERIS_TYPE": 0, "CLASSIFICATION_TYPE": "U", "NORAD_CAT_ID": 30989, "ELEMENT_SET_NO": 999, "REV_AT_EPOCH": 96103, "BSTAR": 0.00091735977, "MEAN_MOTION_DOT": 1.766e-05, "MEAN_MOTION_DDOT": 0}, "tle": {"line1": "1 30989U 99025BCF 25354.88956485  .00001766  00000+0  91736-3 0  9994", "line2": "2 30989  99.0524  68.5600 0090211  76.8659 284.2561 14.13974760961038"}}, "geometry": {"type": "Point", "coordinates": [67.7379815266024, 7.813129194431764]}}, {"type": "Feature", "properties": {"norad_id": 30993, "name": "FENGYUN 1C DEB", "group": "fengyun-1c-debris", "lat": -67.18527322978929, "lon": -113.7586488606602, "alt_km": 782.2648940719273, "timestamp": "2025-12-21T07:34:34.796375+00:00", "meta": {"OBJECT_NAME": "FENGYUN 1C DEB", "OBJECT_ID": "1999-025BCK", "EPOCH": "2025-12-20T03:57:22.319424", "MEAN_MOTION": 14.35490597, "ECCENTRICITY": 0.00162031, "INCLINATION": 98.8471, "RA_OF_ASC_NODE": 86.7927, "ARG_OF_PERICENTER": 350.435, "MEAN_ANOMALY": 74.6937, "EPHEMERIS_TYPE": 0, "CLASSIFICATION_TYPE": "U", "NORAD_CAT_ID": 30993, "ELEMENT_SET_NO": 999, "REV_AT_EPOCH": 97026, "BSTAR": 0.0011774155, "MEAN_MOTION_DOT": 3.346e-05, "MEAN_MOTION_DDOT": 0}, "tle": {"line1": "1 30993U 99025BCK 25354.16484166  .00003346  00000+0  11774-2 0  9991", "line2": "2 30993  98.8471  86.7927 0016203 350.4350  74.6937 14.35490597970261"}}, "geometry": {"type": "Point", "coordinates": [-113.7586488606602, -67.18527322978929]}}, {"type": "Feature", "properties": {"norad_id": 30994, "name": "FENGYUN 1C DEB", "group": "fengyun-1c-debris", "lat": -79.2120502763881, "lon": 56.97137389406543, "alt_km": 868.3140995542881, "timestamp": "2025-12-21T07:34:34.796385+00:00", "meta": {"OBJECT_NAME": "FENGYUN 1C DEB", "OBJECT_ID": "1999-025BCL", "EPOCH": "2025-12-20T23:28:06.278016", "MEAN_MOTION": 14.11775404, "ECCENTRICITY": 0.00182447, "INCLINATION": 98.6995, "RA_OF_ASC_NODE": 3.1738, "ARG_OF_PERICENTER": 151.6416, "MEAN_ANOMALY": 208.5753, "EPHEMERIS_TYPE": 0, "CLASSIFICATION_TYPE": "U", "NORAD_CAT_ID": 30994, "ELEMENT_SET_NO": 999, "REV_AT_EPOCH": 96701, "BSTAR": 0.00011675268, "MEAN_MOTION_DOT": 1.71e-06, "MEAN_MOTION_DDOT": 0}, "tle": {"line1": "1 30994U 99025BCL 25354.97785044  .00000171  00000+0  11675-3 0  9994", "line2": "2 30994  98.6995   3.1738 0018244 151.6416 208.5753 14.11775404967015"}}, "geometry": {"type": "Point", "coordinates": [56.97137389406543, -79.2120502763881]}}]}